ORBCOMM FM37 [-]        
1 33064U 08031E   23276.84333935  .00003368  00000+0  52343-3 0  9995
2 33064  48.4413  50.8556 0006622 235.4962 256.2371 14.75144896822038
ORBCOMM FM40 [-]        
1 33065U 08031F   23276.88339498  .00004344  00000+0  65054-3 0  9998
2 33065  48.4439  41.9323 0008075 242.5172 264.8089 14.76185827822059
VESSELSAT 1 [-]         
1 37840U 11058C   23276.65353715  .00000473  00000+0  11414-3 0  9999
2 37840  19.9615 259.9240 0013740 179.7225 180.3188 14.11065553618267
ORBCOMM FM109 [+]       
1 40086U 14040A   23276.81986229  .00001294  00000+0  32927-3 0  9993
2 40086  47.0040  70.2622 0002016 315.0520  45.0202 14.55945714490303
ORBCOMM FM107 [+]       
1 40087U 14040B   23276.85407470  .00001322  00000+0  33557-3 0  9996
2 40087  47.0055  71.0323 0001939 277.3691  82.6974 14.55943948490387
ORBCOMM FM106 [-]       
1 40088U 14040C   23276.54289382  .00001727  00000+0  34436-3 0  9999
2 40088  47.0616 301.6211 0017425  58.2599 301.9986 14.66042634492015
ORBCOMM FM111 [-]       
1 40089U 14040D   23276.88875884  .00003897  00000+0  53137-3 0  9994
2 40089  47.0039 226.2750 0032797 106.0407 254.4104 14.80039414497864
ORBCOMM FM104 [-]       
1 40090U 14040E   23276.60509467  .00001149  00000+0  30552-3 0  9991
2 40090  47.0050  98.7127 0017749 243.9665 115.9391 14.54501097489925
